[{"OBJECT_NAME":"STARLINK-6088","OBJECT_ID":"2023-046F","EPOCH":"2026-03-09T22:00:01.999584","MEAN_MOTION":15.06752995,"ECCENTRICITY":0.00022331,"INCLINATION":43.0013,"RA_OF_ASC_NODE":157.9436,"ARG_OF_PERICENTER":264.7386,"MEAN_ANOMALY":92.2691,"EPHEMERIS_TYPE":0,"CLASSIFICATION_TYPE":"U","NORAD_CAT_ID":56098,"ELEMENT_SET_NO":999,"REV_AT_EPOCH":577,"BSTAR":4.5351091e-5,"MEAN_MOTION_DOT":4.74e-6,"MEAN_MOTION_DDOT":0},{"OBJECT_NAME":"KSLV-II R\/B","OBJECT_ID":"2025-274P","EPOCH":"2026-03-09T17:44:44.185056","MEAN_MOTION":14.98166503,"ECCENTRICITY":0.00605567,"INCLINATION":97.7452,"RA_OF_ASC_NODE":0.3618,"ARG_OF_PERICENTER":19.961,"MEAN_ANOMALY":340.3962,"EPHEMERIS_TYPE":0,"CLASSIFICATION_TYPE":"U","NORAD_CAT_ID":66663,"ELEMENT_SET_NO":999,"REV_AT_EPOCH":1543,"BSTAR":0.00059831331,"MEAN_MOTION_DOT":7.309e-5,"MEAN_MOTION_DDOT":0}]
